ONEWEB-0018             
1 45434U 20020L   24222.54184264 -.00000414  00000+0 -12033-2 0  9991
2 45434  87.8999 155.7717 0001933  76.2439 283.8904 13.11417246213945
ONEWEB-0083             
1 45435U 20020M   24222.53165432 -.00000355  00000+0 -10388-2 0  9992
2 45435  87.8999 155.7553 0002026  78.5677 281.5679 13.11414835213997
ONEWEB-0095             
1 45436U 20020N   24222.52332780 -.00000309  00000+0 -90749-3 0  9993
2 45436  87.8996 155.7909 0002777  89.9632 270.1815 13.11415289213989
ONEWEB-0092             
1 45437U 20020P   24222.56642476  .00000363  00000+0  98910-3 0  9990
2 45437  87.8999 155.7647 0002364  79.5931 280.5463 13.11419940214108
ONEWEB-0085             
1 45438U 20020Q   24222.52488665 -.00000332  00000+0 -97177-3 0  9997
2 45438  87.8999 155.7809 0001972  75.7093 284.4254 13.11414926213985
ONEWEB-0096             
1 45439U 20020R   24222.53335937 -.00000489  00000+0 -14157-2 0  9991
2 45439  87.8998 155.7492 0001935  72.0917 288.0422 13.11415986213970
ONEWEB-0037             
1 45440U 20020S   24222.59103988  .00000275  00000+0  74118-3 0  9993
2 45440  87.8991 155.7188 0002165  79.0049 281.1322 13.11415650214013
ONEWEB-0042             
1 45441U 20020T   24222.52305146 -.00000251  00000+0 -74538-3 0  9999
2 45441  87.8996 155.7649 0002062  76.4503 283.6854 13.11414972213970
